{
  "type": "FeatureCollection",
  "features": [
    {
      "type": "Feature",
      "properties": {
        "norad_id": 43719,
        "name": "HYSIS",
        "group": "resource",
        "lat": 67.58340141950761,
        "lon": 20.513462985414616,
        "alt_km": 626.0237157994443,
        "timestamp": "2025-12-03T10:52:57.107529+00:00",
        "meta_object_name": "HYSIS",
        "meta_object_id": "2018-096A",
        "meta_epoch": "2025-12-03T04:04:30.459936",
        "meta_mean_motion": 14.78598194,
        "meta_eccentricity": 0.000164,
        "meta_inclination": 98.0112,
        "meta_ra_of_asc_node": 40.194,
        "meta_arg_of_pericenter": 67.21,
        "meta_mean_anomaly": 292.9284,
        "meta_ephemeris_type": 0,
        "meta_classification_type": "U",
        "meta_norad_cat_id": 43719,
        "meta_element_set_no": 999,
        "meta_rev_at_epoch": 37845,
        "meta_bstar": 2.3814e-05,
        "meta_mean_motion_dot": 1.22e-06,
        "meta_mean_motion_ddot": 0,
        "tle_line1": "1 43719U 18096A   25337.16979699  .00000122  00000+0  23814-4 0  9990",
        "tle_line2": "2 43719  98.0112  40.1940 0001640  67.2100 292.9284 14.78598194378451"
      },
      "geometry": {
        "type": "Point",
        "coordinates": [
          20.513462985414616,
          67.58340141950761
        ]
      }
    },
    {
      "type": "Feature",
      "properties": {
        "norad_id": 43783,
        "name": "KAZSTSAT",
        "group": "resource",
        "lat": -25.42886602012224,
        "lon": 16.607158005594847,
        "alt_km": 570.8023550147836,
        "timestamp": "2025-12-03T10:52:57.107540+00:00",
        "meta_object_name": "KAZSTSAT",
        "meta_object_id": "2018-099AB",
        "meta_epoch": "2025-12-03T01:23:09.943008",
        "meta_mean_motion": 14.99298184,
        "meta_eccentricity": 0.0006551,
        "meta_inclination": 97.4552,
        "meta_ra_of_asc_node": 12.659,
        "meta_arg_of_pericenter": 5.7461,
        "meta_mean_anomaly": 354.3837,
        "meta_ephemeris_type": 0,
        "meta_classification_type": "U",
        "meta_norad_cat_id": 43783,
        "meta_element_set_no": 999,
        "meta_rev_at_epoch": 38191,
        "meta_bstar": 0.00022261,
        "meta_mean_motion_dot": 2.663e-05,
        "meta_mean_motion_ddot": 0,
        "tle_line1": "1 43783U 18099AB  25337.05775397  .00002663  00000+0  22261-3 0  9997",
        "tle_line2": "2 43783  97.4552  12.6590 0006551   5.7461 354.3837 14.99298184381912"
      },
      "geometry": {
        "type": "Point",
        "coordinates": [
          16.607158005594847,
          -25.42886602012224
        ]
      }
    },
    {
      "type": "Feature",
      "properties": {
        "norad_id": 43831,
        "name": "SAUDISAT 5A",
        "group": "resource",
        "lat": -51.02414604222329,
        "lon": -151.33915356090412,
        "alt_km": 501.2108114218863,
        "timestamp": "2025-12-03T10:52:57.107551+00:00",
        "meta_object_name": "SAUDISAT 5A",
        "meta_object_id": "2018-102A",
        "meta_epoch": "2025-12-03T05:08:55.397184",
        "meta_mean_motion": 15.25466618,
        "meta_eccentricity": 0.001178,
        "meta_inclination": 97.3374,
        "meta_ra_of_asc_node": 37.5906,
        "meta_arg_of_pericenter": 105.4454,
        "meta_mean_anomaly": 254.8086,
        "meta_ephemeris_type": 0,
        "meta_classification_type": "U",
        "meta_norad_cat_id": 43831,
        "meta_element_set_no": 999,
        "meta_rev_at_epoch": 38577,
        "meta_bstar": 0.00033982,
        "meta_mean_motion_dot": 8.546e-05,
        "meta_mean_motion_ddot": 0,
        "tle_line1": "1 43831U 18102A   25337.21453006  .00008546  00000+0  33982-3 0  9992",
        "tle_line2": "2 43831  97.3374  37.5906 0011780 105.4454 254.8086 15.25466618385771"
      },
      "geometry": {
        "type": "Point",
        "coordinates": [
          -151.33915356090412,
          -51.02414604222329
        ]
      }
    },
    {
      "type": "Feature",
      "properties": {
        "norad_id": 43833,
        "name": "SAUDISAT 5B",
        "group": "resource",
        "lat": -82.42183655355845,
        "lon": 116.4345995807317,
        "alt_km": 503.91619740971055,
        "timestamp": "2025-12-03T10:52:57.107562+00:00",
        "meta_object_name": "SAUDISAT 5B",
        "meta_object_id": "2018-102C",
        "meta_epoch": "2025-12-03T04:58:24.652128",
        "meta_mean_motion": 15.25824055,
        "meta_eccentricity": 0.0012445,
        "meta_inclination": 97.3469,
        "meta_ra_of_asc_node": 40.3049,
        "meta_arg_of_pericenter": 108.0091,
        "meta_mean_anomaly": 252.2505,
        "meta_ephemeris_type": 0,
        "meta_classification_type": "U",
        "meta_norad_cat_id": 43833,
        "meta_element_set_no": 999,
        "meta_rev_at_epoch": 38588,
        "meta_bstar": 0.00033439,
        "meta_mean_motion_dot": 8.501e-05,
        "meta_mean_motion_ddot": 0,
        "tle_line1": "1 43833U 18102C   25337.20722977  .00008501  00000+0  33439-3 0  9997",
        "tle_line2": "2 43833  97.3469  40.3049 0012445 108.0091 252.2505 15.25824055385886"
      },
      "geometry": {
        "type": "Point",
        "coordinates": [
          116.4345995807317,
          -82.42183655355845
        ]
      }
    },
    {
      "type": "Feature",
      "properties": {
        "norad_id": 44622,
        "name": "GAOFEN-10R",
        "group": "resource",
        "lat": -34.909322125195814,
        "lon": 99.27348553368654,
        "alt_km": 631.8859457145782,
        "timestamp": "2025-12-03T10:52:57.107572+00:00",
        "meta_object_name": "GAOFEN-10R",
        "meta_object_id": "2019-066A",
        "meta_epoch": "2025-12-03T05:03:24.037632",
        "meta_mean_motion": 14.82735938,
        "meta_eccentricity": 0.0008266,
        "meta_inclination": 98.0261,
        "meta_ra_of_asc_node": 284.6808,
        "meta_arg_of_pericenter": 67.8537,
        "meta_mean_anomaly": 292.3553,
        "meta_ephemeris_type": 0,
        "meta_classification_type": "U",
        "meta_norad_cat_id": 44622,
        "meta_element_set_no": 999,
        "meta_rev_at_epoch": 33333,
        "meta_bstar": 0.00031826,
        "meta_mean_motion_dot": 2.517e-05,
        "meta_mean_motion_ddot": 0,
        "tle_line1": "1 44622U 19066A   25337.21069488  .00002517  00000+0  31826-3 0  9995",
        "tle_line2": "2 44622  98.0261 284.6808 0008266  67.8537 292.3553 14.82735938333334"
      },
      "geometry": {
        "type": "Point",
        "coordinates": [
          99.27348553368654,
          -34.909322125195814
        ]
      }
    },
    {
      "type": "Feature",
      "properties": {
        "norad_id": 44804,
        "name": "CARTOSAT-3",
        "group": "resource",
        "lat": -59.281726910688064,
        "lon": -155.58695115103416,
        "alt_km": 520.5702529467517,
        "timestamp": "2025-12-03T10:52:57.107583+00:00",
        "meta_object_name": "CARTOSAT-3",
        "meta_object_id": "2019-081A",
        "meta_epoch": "2025-12-03T05:05:16.647072",
        "meta_mean_motion": 15.19232221,
        "meta_eccentricity": 0.0013771,
        "meta_inclination": 97.4604,
        "meta_ra_of_asc_node": 36.9152,
        "meta_arg_of_pericenter": 117.2009,
        "meta_mean_anomaly": 243.0631,
        "meta_ephemeris_type": 0,
        "meta_classification_type": "U",
        "meta_norad_cat_id": 44804,
        "meta_element_set_no": 999,
        "meta_rev_at_epoch": 33371,
        "meta_bstar": 0.00014294,
        "meta_mean_motion_dot": 2.949e-05,
        "meta_mean_motion_ddot": 0,
        "tle_line1": "1 44804U 19081A   25337.21199823  .00002949  00000+0  14294-3 0  9990",
        "tle_line2": "2 44804  97.4604  36.9152 0013771 117.2009 243.0631 15.19232221333711"
      },
      "geometry": {
        "type": "Point",
        "coordinates": [
          -155.58695115103416,
          -59.281726910688064
        ]
      }
    },
    {
      "type": "Feature",
      "properties": {
        "norad_id": 44819,
        "name": "GAOFEN-12 01",
        "group": "resource",
        "lat": -13.027588669500508,
        "lon": 162.15768675675827,
        "alt_km": 632.0931037836135,
        "timestamp": "2025-12-03T10:52:57.107593+00:00",
        "meta_object_name": "GAOFEN-12 01",
        "meta_object_id": "2019-082A",
        "meta_epoch": "2025-12-03T05:08:51.188640",
        "meta_mean_motion": 14.80638822,
        "meta_eccentricity": 0.0001278,
        "meta_inclination": 97.8128,
        "meta_ra_of_asc_node": 343.7455,
        "meta_arg_of_pericenter": 298.9437,
        "meta_mean_anomaly": 61.1647,
        "meta_ephemeris_type": 0,
        "meta_classification_type": "U",
        "meta_norad_cat_id": 44819,
        "meta_element_set_no": 999,
        "meta_rev_at_epoch": 32509,
        "meta_bstar": 0.00010188,
        "meta_mean_motion_dot": 7.32e-06,
        "meta_mean_motion_ddot": 0,
        "tle_line1": "1 44819U 19082A   25337.21448135  .00000732  00000+0  10188-3 0  9996",
        "tle_line2": "2 44819  97.8128 343.7455 0001278 298.9437  61.1647 14.80638822325090"
      },
      "geometry": {
        "type": "Point",
        "coordinates": [
          162.15768675675827,
          -13.027588669500508
        ]
      }
    }
  ]
}